STARLINK-5030
1 55418U 23014AD  24100.59069524  .00005279  00000-0  45021-3 0  9998
2 55418  70.0005  47.1432 0002870 280.3166  79.7670 14.98305292 65900
STARLINK-5629
1 55419U 23014AE  24100.57816274 -.00004390  00000-0 -36022-3 0  9995
2 55419  70.0011  47.1020 0002670 277.9335  82.1521 14.98349371 65908
STARLINK-5604
1 55420U 23014AF  24100.14793687  .00000862  00000-0  80047-4 0  9997
2 55420  70.0006   8.2758 0002924 268.1432  91.9392 14.98331971 67769
STARLINK-5598
1 55421U 23014AG  24100.58651101 -.00000549  00000-0 -38184-4 0  9999
2 55421  70.0009  47.1279 0002887 268.5749  91.5079 14.98331902 66846
STARLINK-5006
1 55422U 23014AH  24100.56564268  .00000091  00000-0  15413-4 0  9995
2 55422  70.0020  47.0545 0002718 270.6902  89.3945 14.98329988 65907
STARLINK-5068
1 55423U 23014AJ  24100.26940940  .00000581  00000-0  56479-4 0  9999
2 55423  70.0007  48.0305 0002688 270.6406  89.4445 14.98331172 66795
STARLINK-5615
1 55425U 23014AL  24100.59486143 -.00000101  00000-0 -63505-6 0  9997
2 55425  70.0008  47.1596 0002941 269.1857  90.8965 14.98329819 66849
STARLINK-5638
1 55426U 23014AM  24100.27775513  .00002775  00000-0  24026-3 0  9994
2 55426  70.0010  48.0620 0002802 268.0691  92.0147 14.98326976 66792
STARLINK-5073
1 55427U 23014AN  24100.59903798  .00000025  00000-0  98846-5 0  9997
2 55427  70.0009  47.1749 0002899 269.9654  90.1173 14.98329080 66841
STARLINK-5064
1 55428U 23014AP  24100.55315507  .00003880  00000-0  33282-3 0  9992
2 55428  70.0014  47.4194 0002540 262.4157  97.6713 14.98325981 66831
STARLINK-5645
1 55429U 23014AQ  24100.27358182  .00000252  00000-0  28900-4 0  9990
2 55429  70.0008  48.0477 0002914 269.7673  90.3152 14.98333597 66798
STARLINK-5642
1 55430U 23014AR  24100.33221716 -.00000057  00000-0  30088-5 0  9996
2 55430  69.9999  67.7081 0002899 269.9179  90.1648 14.98331590 66317
STARLINK-5643
1 55431U 23014AS  24100.54897326  .00000617  00000-0  59524-4 0  9992
2 55431  70.0013  47.4044 0002925 270.3100  89.7724 14.98331699 66838
STARLINK-5637
1 55432U 23014AT  24100.87047105  .00001344  00000-0  12042-3 0  9992
2 55432  70.0000  66.3776 0002929 275.0076  85.0749 14.98317131 65453
STARLINK-5570
1 55433U 23014AU  24100.32804287  .00001379  00000-0  12338-3 0  9991
2 55433  69.9996  67.6936 0003036 270.4867  89.5944 14.98330125 66314
STARLINK-5621
1 55434U 23014AV  24100.88299369 -.00000481  00000-0 -32526-4 0  9999
2 55434  70.0006  66.4206 0002683 267.5065  92.5786 14.98335747 65458
STARLINK-5626
1 55435U 23014AW  24100.87465064 -.00000810  00000-0 -60064-4 0  9990
2 55435  70.0004  66.3927 0002532 256.8535 103.2342 14.98333377 65457
STARLINK-5640
1 55436U 23014AX  24100.62014771  .00001590  00000-0  14104-3 0  9996
2 55436  70.0021  67.1112 0002218 262.1153  97.9754 14.98325184 65418
STARLINK-5080
1 55437U 23014AY  24100.26444985  .00044751  00000-0  20189-2 0  9996
2 55437  69.9951  55.0440 0007268 230.4922 129.5606 15.20759043 66623
STARLINK-5074
1 55438U 23014AZ  24100.53620308  .00000013  00000-0  89064-5 0  9995
2 55438  70.0011  27.1024 0002739 272.8531  87.2315 14.98329263 67333
STARLINK-5634
1 55439U 23014BA  24100.35727571 -.00000342  00000-0 -20907-4 0  9993
2 55439  69.9999  67.7974 0003012 269.7752  90.3061 14.98325438 66315
APSTAR 6E SPS
1 55447U 23005C   24100.55423131  .00000024  00000-0  31340-2 0  9995
2 55447  28.6498  45.8819 2293185 119.5566 265.2749  7.60519021 33071
STARLINK-5699
1 55449U 23015A   24100.50688013  .00001207  00000-0  10438-3 0  9995
2 55449  43.0028 165.5960 0001151 276.1344  83.9367 15.02540306 66513
STARLINK-5686
1 55450U 23015B   24100.57668358 -.00008540  00000-0 -61724-3 0  9997
2 55450  43.0042 165.2610 0001487 269.9016  90.1656 15.02573358 65409
STARLINK-5656
1 55451U 23015C   24100.57003783  .00002465  00000-0  19749-3 0  9991
2 55451  43.0041 165.2097 0001135 266.0722  93.9991 15.02528185 65580
STARLINK-5683
1 55452U 23015D   24100.56558960  .00001204  00000-0  10421-3 0  9991
2 55452  43.0027 165.1766 0001091 274.1035  85.9682 15.02537598 65581
STARLINK-5684
1 55453U 23015E   24100.56226501  .00002091  00000-0  16982-3 0  9998
2 55453  43.0034 165.1512 0001466 266.6215  93.4460 15.02536054 65585
STARLINK-5636
1 55454U 23015F   24100.55559676  .00002351  00000-0  18900-3 0  9991
2 55454  43.0021 165.0926 0001185 273.6569  86.4138 15.02545496 65582
STARLINK-5680
1 55455U 23015G   24100.56892621  .00002113  00000-0  17146-3 0  9990
2 55455  43.0036 165.2010 0001140 264.6262  95.4450 15.02537407 65586
STARLINK-5058
1 55456U 23015H   24100.55671759  .00002187  00000-0  17699-3 0  9991
2 55456  43.0046 165.1081 0001290 271.4897  88.5797 15.02528818 65584
STARLINK-5682
1 55457U 23015J   24100.55893081  .00001114  00000-0  97505-4 0  9990
2 55457  43.0029 165.1260 0001164 277.9758  82.0952 15.02536975 65587
STARLINK-5020
1 55458U 23015K   24100.54561317  .00001697  00000-0  14067-3 0  9991
2 55458  43.0026 165.0242 0001122 278.1242  81.9473 15.02536901 65584
STARLINK-5669
1 55459U 23015L   24100.48357725  .00000486  00000-0  51032-4 0  9990
2 55459  43.0018 165.4197 0001307 270.4780  89.5912 15.02537342 65577
STARLINK-5678
1 55460U 23015M   24100.54672571  .00002273  00000-0  18329-3 0  9995
2 55460  43.0040 165.0339 0001214 268.4487  91.6216 15.02537107 65587
STARLINK-5646
1 55461U 23015N   24100.55338595  .00001784  00000-0  14711-3 0  9999
2 55461  43.0035 165.0828 0001166 269.7673  90.3035 15.02536989 65584
STARLINK-5673
1 55462U 23015P   24100.86801264  .00000635  00000-0  62059-4 0  9995
2 55462  43.0032 163.1424 0001241 277.1776  82.8925 15.02537213 65635
STARLINK-5677
1 55463U 23015Q   24100.47469504  .00001484  00000-0  12488-3 0  9993
2 55463  43.0037 165.3525 0001128 273.6734  86.3980 15.02534304 65577
STARLINK-5676
1 55464U 23015R   24100.52896859  .00001259  00000-0  10826-3 0  9991
2 55464  43.0019 164.8971 0001317 266.0534  94.0158 15.02532681 65581
STARLINK-5674
1 55465U 23015S   24100.53229816  .00002167  00000-0  17548-3 0  9993
2 55465  43.0017 164.9225 0001360 267.8376  92.2311 15.02534635 65586
STARLINK-5628
1 55466U 23015T   24100.58212728  .00001767  00000-0  14588-3 0  9999
2 55466  43.0040 164.4362 0001256 268.3831  91.6867 15.02532605 65591
STARLINK-5679
1 55467U 23015U   24100.53895706  .00000640  00000-0  62436-4 0  9993
2 55467  43.0051 164.9734 0001119 267.6404  92.4311 15.02532530 65587
STARLINK-5672
1 55468U 23015V   24100.59322289  .00001634  00000-0  13603-3 0  9996
2 55468  43.0044 164.5185 0001325 266.0476  94.0215 15.02535727 65590
STARLINK-5681
1 55469U 23015W   24100.86246194  .00000825  00000-0  76166-4 0  9992
2 55469  43.0027 163.0998 0001252 264.8944  95.1756 15.02536280 65635
STARLINK-5708
1 55470U 23015X   24100.85469079  .00002169  00000-0  17558-3 0  9994
2 55470  43.0026 163.0424 0001256 270.7585  89.3113 15.02542135 65639
STARLINK-5711
1 55471U 23015Y   24100.52009124  .00000946  00000-0  85114-4 0  9995
2 55471  43.0032 164.8302 0001265 266.6185  93.4513 15.02528227 65581
STARLINK-5705
1 55472U 23015Z   24100.85174015  .00001391  00000-0  11800-3 0  9999
2 55472  43.0046 150.8752 0001128 267.5074  92.5639 15.02536191 65775
STARLINK-5687
1 55473U 23015AA  24100.55717228  .00019270  00000-0  12620-2 0  9991
2 55473  43.0022 162.5730 0004981  31.4935 328.6207 15.07398835 65613
STARLINK-5689
1 55474U 23015AB  24100.55645489 -.00000304  00000-0 -74168-5 0  9999
2 55474  43.0037 178.0975 0001512 268.5041  91.5628 15.02538339 65434
STARLINK-5650
1 55475U 23015AC  24100.57879689  .00003066  00000-0  24191-3 0  9998
2 55475  43.0019 164.4098 0001332 266.7622  93.3068 15.02539380 65597
STARLINK-5685
1 55477U 23015AE  24100.44731705  .00001615  00000-0  13456-3 0  9992
2 55477  43.0027 152.9954 0001104 270.7152  89.3564 15.02540781 65718
STARLINK-5691
1 55478U 23015AF  24100.84507951  .00001472  00000-0  12400-3 0  9990
2 55478  43.0037 150.8218 0001137 268.3756  91.6957 15.02538102 65771
STARLINK-5688
1 55479U 23015AG  24100.52268319  .00001768  00000-0  14594-3 0  9992
2 55479  43.0031 152.6991 0001250 273.2557  86.8142 15.02531327 65723
STARLINK-5690
1 55480U 23015AH  24100.61996263  .00002939  00000-0  23748-3 0  9992
2 55480  43.0037 176.7833 0001438 268.0722  91.9956 15.01722766 65275
STARLINK-5694
1 55481U 23015AJ  24100.55200871  .00001681  00000-0  13947-3 0  9992
2 55481  43.0026 178.0632 0001242 275.6131  84.4569 15.02543378 65433
STARLINK-5693
1 55482U 23015AK  24100.59629633  .00003688  00000-0  28794-3 0  9993
2 55482  43.0032 177.5348 0001035 279.1895  80.8830 15.02537186 65267
STARLINK-5692
1 55483U 23015AL  24100.47555114  .00000055  00000-0  19170-4 0  9997
2 55483  43.0037 178.3495 0001259 273.8511  86.2188 15.02533722 65425
STARLINK-5696
1 55484U 23015AM  24100.59961887  .00002270  00000-0  18305-3 0  9998
2 55484  43.0028 177.5603 0001224 277.8752  82.1951 15.02540875 65443
STARLINK-5695
1 55485U 23015AN  24100.54868589  .00000622  00000-0  61088-4 0  9995
2 55485  43.0048 178.0353 0001524 277.2840  82.7829 15.02538905 65259
STARLINK-5704
1 55486U 23015AP  24100.53536167  .00001679  00000-0  13932-3 0  9996
2 55486  43.0025 177.8913 0001362 266.1743  93.8944 15.02535664 65433
STARLINK-5701
1 55487U 23015AQ  24100.35035448  .00000571  00000-0  57306-4 0  9997
2 55487  43.0018 179.1284 0001168 277.7786  82.2924 15.02539063 65405
STARLINK-5706
1 55488U 23015AR  24100.59185834  .00001134  00000-0  99001-4 0  9993
2 55488  43.0040 177.4952 0001530 267.0482  93.0185 15.02528495 65442
STARLINK-5371
1 55489U 23015AS  24100.60520921 -.00008501  00000-0 -61582-3 0  9995
2 55489  43.0033 177.6005 0001137 265.4225  94.6487 15.02485503 65440
STARLINK-5373
1 55490U 23015AT  24100.40349573  .00004486  00000-0  34669-3 0  9999
2 55490  43.0032 178.6593 0001160 276.0197  84.0513 15.02561509 65417
